{
  "type": "FeatureCollection",
  "features": [
    {
      "type": "Feature",
      "properties": {
        "norad_id": 43823,
        "name": "GEO-KOMPSAT-2A",
        "group": "weather",
        "lat": 0.0010955389628368932,
        "lon": 107.37227940542779,
        "alt_km": 35786.34897356546,
        "timestamp": "2025-12-02T17:49:11.668464+00:00",
        "meta_object_name": "GEO-KOMPSAT-2A",
        "meta_object_id": "2018-100A",
        "meta_epoch": "2025-12-02T05:57:38.748960",
        "meta_mean_motion": 1.00270582,
        "meta_eccentricity": 5.7e-05,
        "meta_inclination": 0.0606,
        "meta_ra_of_asc_node": 123.2735,
        "meta_arg_of_pericenter": 70.3508,
        "meta_mean_anomaly": 95.4102,
        "meta_ephemeris_type": 0,
        "meta_classification_type": "U",
        "meta_norad_cat_id": 43823,
        "meta_element_set_no": 999,
        "meta_rev_at_epoch": 2565,
        "meta_bstar": 0,
        "meta_mean_motion_dot": -3.23e-06,
        "meta_mean_motion_ddot": 0,
        "tle_line1": "1 43823U 18100A   25336.24836515 -.00000323  00000+0  00000+0 0  9990",
        "tle_line2": "2 43823   0.0606 123.2735 0000570  70.3508  95.4102  1.00270582 25656"
      },
      "geometry": {
        "type": "Point",
        "coordinates": [
          107.37227940542779,
          0.0010955389628368932
        ]
      }
    },
    {
      "type": "Feature",
      "properties": {
        "norad_id": 44387,
        "name": "METEOR-M2 2",
        "group": "weather",
        "lat": -79.06168255105706,
        "lon": 82.21074005687,
        "alt_km": 818.2594902336295,
        "timestamp": "2025-12-02T17:49:11.668481+00:00",
        "meta_object_name": "METEOR-M2 2",
        "meta_object_id": "2019-038A",
        "meta_epoch": "2025-12-02T13:12:50.241600",
        "meta_mean_motion": 14.24284401,
        "meta_eccentricity": 8.37e-05,
        "meta_inclination": 98.8962,
        "meta_ra_of_asc_node": 316.1553,
        "meta_arg_of_pericenter": 169.8315,
        "meta_mean_anomaly": 190.288,
        "meta_ephemeris_type": 0,
        "meta_classification_type": "U",
        "meta_norad_cat_id": 44387,
        "meta_element_set_no": 999,
        "meta_rev_at_epoch": 33330,
        "meta_bstar": 0.00012133,
        "meta_mean_motion_dot": 2.34e-06,
        "meta_mean_motion_ddot": 0,
        "tle_line1": "1 44387U 19038A   25336.55058150  .00000234  00000+0  12133-3 0  9996",
        "tle_line2": "2 44387  98.8962 316.1553 0000837 169.8315 190.2880 14.24284401333305"
      },
      "geometry": {
        "type": "Point",
        "coordinates": [
          82.21074005687,
          -79.06168255105706
        ]
      }
    },
    {
      "type": "Feature",
      "properties": {
        "norad_id": 47719,
        "name": "ARKTIKA-M 1",
        "group": "weather",
        "lat": 58.1886896594317,
        "lon": 139.94233094078348,
        "alt_km": 34737.053260532775,
        "timestamp": "2025-12-02T17:49:11.668502+00:00",
        "meta_object_name": "ARKTIKA-M 1",
        "meta_object_id": "2021-016A",
        "meta_epoch": "2025-12-01T02:41:41.634816",
        "meta_mean_motion": 2.00613156,
        "meta_eccentricity": 0.71974708,
        "meta_inclination": 63.1756,
        "meta_ra_of_asc_node": 85.6045,
        "meta_arg_of_pericenter": 269.084,
        "meta_mean_anomaly": 15.7076,
        "meta_ephemeris_type": 0,
        "meta_classification_type": "U",
        "meta_norad_cat_id": 47719,
        "meta_element_set_no": 999,
        "meta_rev_at_epoch": 3481,
        "meta_bstar": 0,
        "meta_mean_motion_dot": -1.2e-07,
        "meta_mean_motion_ddot": 0,
        "tle_line1": "1 47719U 21016A   25335.11228744 -.00000012  00000+0  00000+0 0  9997",
        "tle_line2": "2 47719  63.1756  85.6045 7197470 269.0840  15.7076  2.00613156 34816"
      },
      "geometry": {
        "type": "Point",
        "coordinates": [
          139.94233094078348,
          58.1886896594317
        ]
      }
    },
    {
      "type": "Feature",
      "properties": {
        "norad_id": 49008,
        "name": "FENGYUN 3E",
        "group": "weather",
        "lat": 21.132022549847267,
        "lon": -26.02951853603627,
        "alt_km": 825.2411577586972,
        "timestamp": "2025-12-02T17:49:11.668524+00:00",
        "meta_object_name": "FENGYUN 3E",
        "meta_object_id": "2021-062A",
        "meta_epoch": "2025-12-02T12:38:44.736288",
        "meta_mean_motion": 14.19877785,
        "meta_eccentricity": 7.89e-05,
        "meta_inclination": 98.7476,
        "meta_ra_of_asc_node": 337.1692,
        "meta_arg_of_pericenter": 329.3866,
        "meta_mean_anomaly": 30.7264,
        "meta_ephemeris_type": 0,
        "meta_classification_type": "U",
        "meta_norad_cat_id": 49008,
        "meta_element_set_no": 999,
        "meta_rev_at_epoch": 22867,
        "meta_bstar": 4.4387e-05,
        "meta_mean_motion_dot": 5e-07,
        "meta_mean_motion_ddot": 0,
        "tle_line1": "1 49008U 21062A   25336.52690667  .00000050  00000+0  44387-4 0  9996",
        "tle_line2": "2 49008  98.7476 337.1692 0000789 329.3866  30.7264 14.19877785228670"
      },
      "geometry": {
        "type": "Point",
        "coordinates": [
          -26.02951853603627,
          21.132022549847267
        ]
      }
    },
    {
      "type": "Feature",
      "properties": {
        "norad_id": 51850,
        "name": "GOES 18",
        "group": "weather",
        "lat": -0.010480880946645827,
        "lon": -157.89418282022746,
        "alt_km": 35786.23010034432,
        "timestamp": "2025-12-02T17:49:11.668542+00:00",
        "meta_object_name": "GOES 18",
        "meta_object_id": "2022-021A",
        "meta_epoch": "2025-12-02T12:16:38.556768",
        "meta_mean_motion": 1.00270221,
        "meta_eccentricity": 7.13e-05,
        "meta_inclination": 0.0358,
        "meta_ra_of_asc_node": 129.1969,
        "meta_arg_of_pericenter": 158.0136,
        "meta_mean_anomaly": 191.5668,
        "meta_ephemeris_type": 0,
        "meta_classification_type": "U",
        "meta_norad_cat_id": 51850,
        "meta_element_set_no": 999,
        "meta_rev_at_epoch": 462,
        "meta_bstar": 0,
        "meta_mean_motion_dot": 1.17e-06,
        "meta_mean_motion_ddot": 0,
        "tle_line1": "1 51850U 22021A   25336.51155737  .00000117  00000+0  00000+0 0  9996",
        "tle_line2": "2 51850   0.0358 129.1969 0000713 158.0136 191.5668  1.00270221  4622"
      },
      "geometry": {
        "type": "Point",
        "coordinates": [
          -157.89418282022746,
          -0.010480880946645827
        ]
      }
    },
    {
      "type": "Feature",
      "properties": {
        "norad_id": 54234,
        "name": "NOAA 21 (JPSS-2)",
        "group": "weather",
        "lat": 40.06616933869537,
        "lon": -94.26206716765115,
        "alt_km": 822.038361628217,
        "timestamp": "2025-12-02T17:49:11.668559+00:00",
        "meta_object_name": "NOAA 21 (JPSS-2)",
        "meta_object_id": "2022-150A",
        "meta_epoch": "2025-12-02T10:51:45.133344",
        "meta_mean_motion": 14.19519494,
        "meta_eccentricity": 0.0002555,
        "meta_inclination": 98.7447,
        "meta_ra_of_asc_node": 272.8899,
        "meta_arg_of_pericenter": 57.2224,
        "meta_mean_anomaly": 302.9198,
        "meta_ephemeris_type": 0,
        "meta_classification_type": "U",
        "meta_norad_cat_id": 54234,
        "meta_element_set_no": 999,
        "meta_rev_at_epoch": 15863,
        "meta_bstar": 8.5857e-05,
        "meta_mean_motion_dot": 1.37e-06,
        "meta_mean_motion_ddot": 0,
        "tle_line1": "1 54234U 22150A   25336.45260571  .00000137  00000+0  85857-4 0  9994",
        "tle_line2": "2 54234  98.7447 272.8899 0002555  57.2224 302.9198 14.19519494158635"
      },
      "geometry": {
        "type": "Point",
        "coordinates": [
          -94.26206716765115,
          40.06616933869537
        ]
      }
    },
    {
      "type": "Feature",
      "properties": {
        "norad_id": 54743,
        "name": "METEOSAT-12 (MTG-I1)",
        "group": "weather",
        "lat": -0.5456648727738294,
        "lon": -21.16165568534301,
        "alt_km": 35786.22614642461,
        "timestamp": "2025-12-02T17:49:11.668577+00:00",
        "meta_object_name": "METEOSAT-12 (MTG-I1)",
        "meta_object_id": "2022-170C",
        "meta_epoch": "2025-12-02T06:56:04.396128",
        "meta_mean_motion": 1.00273512,
        "meta_eccentricity": 0.0001453,
        "meta_inclination": 0.7158,
        "meta_ra_of_asc_node": 29.8067,
        "meta_arg_of_pericenter": 213.6171,
        "meta_mean_anomaly": 291.6922,
        "meta_ephemeris_type": 0,
        "meta_classification_type": "U",
        "meta_norad_cat_id": 54743,
        "meta_element_set_no": 999,
        "meta_rev_at_epoch": 1100,
        "meta_bstar": 0,
        "meta_mean_motion_dot": 1.4e-07,
        "meta_mean_motion_ddot": 0,
        "tle_line1": "1 54743U 22170C   25336.28893977  .00000014  00000+0  00000+0 0  9990",
        "tle_line2": "2 54743   0.7158  29.8067 0001453 213.6171 291.6922  1.00273512 11006"
      },
      "geometry": {
        "type": "Point",
        "coordinates": [
          -21.16165568534301,
          -0.5456648727738294
        ]
      }
    }
  ]
}